0 SL-14 DEB
1 19646U 78100AM  13282.24414376  .00009674  00000-0  41164-1 0  1545
2 19646 082.1410 016.1947 0161822 254.4033 131.7840 12.78311201825648
0 SL-14 DEB
1 19646U 78100AM  13283.56863941  .00009205  00000-0  10000-3 0  1555
2 19646 082.1358 015.2746 0158917 250.7522 107.6855 12.78336858238224
0 SL-14 DEB
1 19646U 78100AM  13285.71629270  .00009849  00000-0  41719-1 0  1552
2 19646 082.1425 013.7761 0167150 247.4466 269.6807 12.78370737826085
0 SL-14 DEB
1 19646U 78100AM  13286.23596553  .00009055  00000-0  38312-1 0  1562
2 19646 082.1428 013.4151 0168349 246.5319 141.0220 12.78389895826151
0 SL-14 DEB
1 19646U 78100AM  13286.72717823  .00009122  00000-0  38579-1 0  1572
2 19646 082.1440 013.0745 0168917 245.5491 241.5304 12.78392521826217
0 SL-14 DEB
1 19646U 78100AM  13287.67420111  .00011268  00000-0  47590-1 0  1586
2 19646 082.1447 012.4159 0170331 243.7263 279.6164 12.78413852826336
0 SL-14 DEB
1 19646U 78100AM  13289.20979211  .00010583  00000-0  44589-1 0  1592
2 19646 082.1486 011.3511 0173296 240.9733 146.1456 12.78440928826531
0 SL-14 DEB
1 19646U 78100AM  13290.61223352  .00009856  00000-0  10000-3 0  1603
2 19646 082.1293 010.3863 0169535 236.7476 121.7819 12.78470613239123
0 SL-14 DEB
1 19646U 78100AM  13290.64663109  .00011653  00000-0  48994-1 0  1603
2 19646 082.1475 010.3519 0175329 238.3208 278.4878 12.78481546826711
0 SL-14 DEB
1 19646U 78100AM  13291.25102751  .00010350  00000-0  43496-1 0  1618
2 19646 082.1469 009.9309 0175859 237.1150 180.0594 12.78488889826794
0 SL-14 DEB
1 19646U 78100AM  13292.68387488  .00011593  00000-0  48630-1 0  1624
2 19646 082.1467 008.9339 0177634 234.5104 294.2215 12.78524073826971
0 SL-14 DEB
1 19646U 78100AM  13293.69882797  .00010644  00000-0  44591-1 0  1638
2 19646 082.1432 008.2247 0178983 232.7093 285.2163 12.78542290827108
0 SL-14 DEB
1 19646U 78100AM  13294.53949227  .00012060  00000-0  50480-1 0  1643
2 19646 082.1450 007.6398 0179725 231.1074 194.2931 12.78565167827217
0 SL-14 DEB
1 19646U 78100AM  13294.70993446  .00013181  00000-0  55143-1 0  1651
2 19646 082.1413 007.5170 0179938 230.7617 258.7780 12.78586483827231
0 SL-14 DEB
1 19646U 78100AM  13295.15697079  .00009992  00000-0  41811-1 0  1667
2 19646 082.1440 007.2076 0180206 229.8422 156.2944 12.78565253827298
0 SL-14 DEB
1 19646U 78100AM  13295.24213279  .00011865  00000-0  49632-1 0  1675
2 19646 082.1446 007.1492 0180370 229.7137 188.2183 12.78573538827306
